{
  "type": "FeatureCollection",
  "features": [
    {
      "type": "Feature",
      "properties": {
        "norad_id": 41890,
        "name": "CYGFM07",
        "group": "weather",
        "lat": -21.188117041690468,
        "lon": 42.342068489834766,
        "alt_km": 425.52635787260624,
        "timestamp": "2025-12-04T09:47:37.166096+00:00",
        "meta_object_name": "CYGFM07",
        "meta_object_id": "2016-078G",
        "meta_epoch": "2025-12-03T16:57:09.459072",
        "meta_mean_motion": 15.49431579,
        "meta_eccentricity": 0.00089923,
        "meta_inclination": 34.9472,
        "meta_ra_of_asc_node": 80.6555,
        "meta_arg_of_pericenter": 132.3245,
        "meta_mean_anomaly": 227.824,
        "meta_ephemeris_type": 0,
        "meta_classification_type": "U",
        "meta_norad_cat_id": 41890,
        "meta_element_set_no": 999,
        "meta_rev_at_epoch": 49855,
        "meta_bstar": 0.00053085543,
        "meta_mean_motion_dot": 0.00030191,
        "meta_mean_motion_ddot": 0,
        "tle_line1": "1 41890U 16078G   25337.70635948  .00030191  00000+0  53086-3 0  9994",
        "tle_line2": "2 41890  34.9472  80.6555 0008992 132.3245 227.8240 15.49431579498554"
      },
      "geometry": {
        "type": "Point",
        "coordinates": [
          42.342068489834766,
          -21.188117041690468
        ]
      }
    },
    {
      "type": "Feature",
      "properties": {
        "norad_id": 41891,
        "name": "CYGFM03",
        "group": "weather",
        "lat": 11.996368070303493,
        "lon": -119.74726217312667,
        "alt_km": 410.9702370436071,
        "timestamp": "2025-12-04T09:47:37.166107+00:00",
        "meta_object_name": "CYGFM03",
        "meta_object_id": "2016-078H",
        "meta_epoch": "2025-12-03T17:38:56.094144",
        "meta_mean_motion": 15.49338017,
        "meta_eccentricity": 0.00083441,
        "meta_inclination": 34.9426,
        "meta_ra_of_asc_node": 82.3772,
        "meta_arg_of_pericenter": 119.6239,
        "meta_mean_anomaly": 240.5315,
        "meta_ephemeris_type": 0,
        "meta_classification_type": "U",
        "meta_norad_cat_id": 41891,
        "meta_element_set_no": 999,
        "meta_rev_at_epoch": 49853,
        "meta_bstar": 0.00054311714,
        "meta_mean_motion_dot": 0.00030783,
        "meta_mean_motion_ddot": 0,
        "tle_line1": "1 41891U 16078H   25337.73537146  .00030783  00000+0  54312-3 0  9999",
        "tle_line2": "2 41891  34.9426  82.3772 0008344 119.6239 240.5315 15.49338017498532"
      },
      "geometry": {
        "type": "Point",
        "coordinates": [
          -119.74726217312667,
          11.996368070303493
        ]
      }
    },
    {
      "type": "Feature",
      "properties": {
        "norad_id": 43010,
        "name": "FENGYUN 3D",
        "group": "weather",
        "lat": -68.72013996769797,
        "lon": -31.429034905076097,
        "alt_km": 833.5386026997949,
        "timestamp": "2025-12-04T09:47:37.166118+00:00",
        "meta_object_name": "FENGYUN 3D",
        "meta_object_id": "2017-072A",
        "meta_epoch": "2025-12-04T05:03:05.383008",
        "meta_mean_motion": 14.19680014,
        "meta_eccentricity": 6.3e-05,
        "meta_inclination": 98.9881,
        "meta_ra_of_asc_node": 304.3935,
        "meta_arg_of_pericenter": 216.0501,
        "meta_mean_anomaly": 144.0632,
        "meta_ephemeris_type": 0,
        "meta_classification_type": "U",
        "meta_norad_cat_id": 43010,
        "meta_element_set_no": 999,
        "meta_rev_at_epoch": 41732,
        "meta_bstar": 0.00012533,
        "meta_mean_motion_dot": 2.19e-06,
        "meta_mean_motion_ddot": 0,
        "tle_line1": "1 43010U 17072A   25338.21047897  .00000219  00000+0  12533-3 0  9992",
        "tle_line2": "2 43010  98.9881 304.3935 0000630 216.0501 144.0632 14.19680014417325"
      },
      "geometry": {
        "type": "Point",
        "coordinates": [
          -31.429034905076097,
          -68.72013996769797
        ]
      }
    },
    {
      "type": "Feature",
      "properties": {
        "norad_id": 43013,
        "name": "NOAA 20 (JPSS-1)",
        "group": "weather",
        "lat": 80.61423636888266,
        "lon": -154.06047857974474,
        "alt_km": 818.0683904196712,
        "timestamp": "2025-12-04T09:47:37.166129+00:00",
        "meta_object_name": "NOAA 20 (JPSS-1)",
        "meta_object_id": "2017-073A",
        "meta_epoch": "2025-12-04T02:37:13.996128",
        "meta_mean_motion": 14.19522201,
        "meta_eccentricity": 0.0002074,
        "meta_inclination": 98.7586,
        "meta_ra_of_asc_node": 274.5009,
        "meta_arg_of_pericenter": 99.6938,
        "meta_mean_anomaly": 260.4473,
        "meta_ephemeris_type": 0,
        "meta_classification_type": "U",
        "meta_norad_cat_id": 43013,
        "meta_element_set_no": 999,
        "meta_rev_at_epoch": 41679,
        "meta_bstar": 0.00010786,
        "meta_mean_motion_dot": 1.83e-06,
        "meta_mean_motion_ddot": 0,
        "tle_line1": "1 43013U 17073A   25338.10918977  .00000183  00000+0  10786-3 0  9998",
        "tle_line2": "2 43013  98.7586 274.5009 0002074  99.6938 260.4473 14.19522201416790"
      },
      "geometry": {
        "type": "Point",
        "coordinates": [
          -154.06047857974474,
          80.61423636888266
        ]
      }
    },
    {
      "type": "Feature",
      "properties": {
        "norad_id": 43226,
        "name": "GOES 17",
        "group": "weather",
        "lat": 0.2952496476797771,
        "lon": 130.84002195329725,
        "alt_km": 35797.28997832132,
        "timestamp": "2025-12-04T09:47:37.166142+00:00",
        "meta_object_name": "GOES 17",
        "meta_object_id": "2018-022A",
        "meta_epoch": "2025-12-03T13:19:45.670080",
        "meta_mean_motion": 1.00271328,
        "meta_eccentricity": 0.00034226,
        "meta_inclination": 0.4342,
        "meta_ra_of_asc_node": 89.3189,
        "meta_arg_of_pericenter": 181.5531,
        "meta_mean_anomaly": 272.2117,
        "meta_ephemeris_type": 0,
        "meta_classification_type": "U",
        "meta_norad_cat_id": 43226,
        "meta_element_set_no": 999,
        "meta_rev_at_epoch": 2846,
        "meta_bstar": 0,
        "meta_mean_motion_dot": -1.65e-06,
        "meta_mean_motion_ddot": 0,
        "tle_line1": "1 43226U 18022A   25337.55538970 -.00000165  00000+0  00000+0 0  9993",
        "tle_line2": "2 43226   0.4342  89.3189 0003422 181.5531 272.2117  1.00271328 28461"
      },
      "geometry": {
        "type": "Point",
        "coordinates": [
          130.84002195329725,
          0.2952496476797771
        ]
      }
    },
    {
      "type": "Feature",
      "properties": {
        "norad_id": 43491,
        "name": "FENGYUN 2H",
        "group": "weather",
        "lat": -1.5803083860954463,
        "lon": -60.26949422023919,
        "alt_km": 35779.39685886616,
        "timestamp": "2025-12-04T09:47:37.166161+00:00",
        "meta_object_name": "FENGYUN 2H",
        "meta_object_id": "2018-050A",
        "meta_epoch": "2025-12-03T20:13:37.295328",
        "meta_mean_motion": 1.00271361,
        "meta_eccentricity": 0.00029221,
        "meta_inclination": 2.5261,
        "meta_ra_of_asc_node": 81.4292,
        "meta_arg_of_pericenter": 162.7976,
        "meta_mean_anomaly": 211.4639,
        "meta_ephemeris_type": 0,
        "meta_classification_type": "U",
        "meta_norad_cat_id": 43491,
        "meta_element_set_no": 999,
        "meta_rev_at_epoch": 2748,
        "meta_bstar": 0,
        "meta_mean_motion_dot": -1.14e-06,
        "meta_mean_motion_ddot": 0,
        "tle_line1": "1 43491U 18050A   25337.84279277 -.00000114  00000+0  00000+0 0  9996",
        "tle_line2": "2 43491   2.5261  81.4292 0002922 162.7976 211.4639  1.00271361 27486"
      },
      "geometry": {
        "type": "Point",
        "coordinates": [
          -60.26949422023919,
          -1.5803083860954463
        ]
      }
    },
    {
      "type": "Feature",
      "properties": {
        "norad_id": 43689,
        "name": "METOP-C",
        "group": "weather",
        "lat": 11.300168209986673,
        "lon": -141.94307368153306,
        "alt_km": 822.0696921186673,
        "timestamp": "2025-12-04T09:47:37.166174+00:00",
        "meta_object_name": "METOP-C",
        "meta_object_id": "2018-087A",
        "meta_epoch": "2025-12-03T22:52:05.099520",
        "meta_mean_motion": 14.21506812,
        "meta_eccentricity": 0.00016849,
        "meta_inclination": 98.6942,
        "meta_ra_of_asc_node": 35.8565,
        "meta_arg_of_pericenter": 56.6673,
        "meta_mean_anomaly": 303.4666,
        "meta_ephemeris_type": 0,
        "meta_classification_type": "U",
        "meta_norad_cat_id": 43689,
        "meta_element_set_no": 999,
        "meta_rev_at_epoch": 36709,
        "meta_bstar": 0.00015816239,
        "meta_mean_motion_dot": 3.02e-06,
        "meta_mean_motion_ddot": 0,
        "tle_line1": "1 43689U 18087A   25337.95283680  .00000302  00000+0  15816-3 0  9993",
        "tle_line2": "2 43689  98.6942  35.8565 0001684  56.6673 303.4666 14.21506812367097"
      },
      "geometry": {
        "type": "Point",
        "coordinates": [
          -141.94307368153306,
          11.300168209986673
        ]
      }
    }
  ]
}